STARLINK-1452           
1 45669U 20035N   24023.12547142  .00017326  00000+0  11794-2 0  9999
2 45669  53.0550 312.7540 0001265  97.8473 262.2660 15.06393957201267
STARLINK-1453           
1 45670U 20035P   24022.98449037  .00002053  00000+0  15669-3 0  9995
2 45670  53.0547 283.3845 0001480 104.8221 255.2932 15.06396007201673
STARLINK-1454           
1 45671U 20035Q   24023.06279907  .00006965  00000+0  48593-3 0  9991
2 45671  53.0548 313.0288 0001337 119.8586 240.2536 15.06403806201263
STARLINK-1455           
1 45672U 20035R   24023.00660125  .00003460  00000+0  25102-3 0  9990
2 45672  53.0548 283.2843 0001396 113.4161 246.6975 15.06401386201676
STARLINK-1456           
1 45673U 20035S   24023.07755816  .00021609  00000+0  14653-2 0  9993
2 45673  53.0546 312.9663 0001097 102.9413 257.1698 15.06395348201271
STARLINK-1457           
1 45674U 20035T   24023.08492106  .00016434  00000+0  11200-2 0  9990
2 45674  53.0547 312.9379 0001359  93.7492 266.3652 15.06385703201289
STARLINK-1458           
1 45675U 20035U   24023.07386071  .00021046  00000+0  14277-2 0  9995
2 45675  53.0550 312.9826 0001321 116.2157 243.8968 15.06396812201260
STARLINK-1460           
1 45676U 20035V   24023.11072674  .00010771  00000+0  74126-3 0  9995
2 45676  53.0549 312.8191 0001457  94.6730 265.4425 15.06379421201275
STARLINK-1392           
1 45677U 20035W   24023.12178999  .00020117  00000+0  13661-2 0  9995
2 45677  53.0545 312.7676 0001302  73.8784 286.2348 15.06385216201270
STARLINK-1393           
1 45678U 20035X   24023.04898945  .00006380  00000+0  44681-3 0  9990
2 45678  53.0558 303.1002 0001456 128.4179 231.6941 15.06397612201408
STARLINK-1394           
1 45679U 20035Y   24022.98632636  .00002409  00000+0  18059-3 0  9994
2 45679  53.0548 303.3778 0001688 129.4610 230.6529 15.06395971201405
STARLINK-1395           
1 45680U 20035Z   24023.06004355  .00012932  00000+0  88526-3 0  9995
2 45680  53.0543 303.0410 0001638  90.3595 269.7582 15.06409091201406
STARLINK-1396           
1 45681U 20035AA  24023.06272946  .00061779  00000+0  28314-2 0  9990
2 45681  53.0463 293.2733 0003315 129.9357 230.1930 15.19899988201541
STARLINK-1397           
1 45682U 20035AB  24022.99738234  .00001845  00000+0  14274-3 0  9998
2 45682  53.0548 303.3243 0001487  91.1235 268.9924 15.06400235201392
STARLINK-1399           
1 45683U 20035AC  24023.04531317  .00002051  00000+0  15654-3 0  9992
2 45683  53.0532 303.1168 0001621  58.5748 301.5399 15.06396930201404
STARLINK-1401           
1 45684U 20035AD  24022.92291071  .00011889  00000+0  52539-3 0  9991
2 45684  53.0496 285.1588 0001910 325.3122  34.7749 15.22137561202069
STARLINK-1402           
1 45685U 20035AE  24023.01711104  .00009554  00000+0  65942-3 0  9995
2 45685  53.0543 297.6593 0001451  95.0447 265.0708 15.06400395201487
STARLINK-1404           
1 45686U 20035AF  24023.07847853  .00000455  00000+0  49421-4 0  9999
2 45686  53.0540 302.9541 0001438  83.9669 276.1483 15.06392804201416
STARLINK-1408           
1 45688U 20035AH  24022.90288483  .00018167  00000+0  66695-3 0  9990
2 45688  53.0827 259.3869 0006392 147.2591 212.8805 15.28004305202434
STARLINK-1413           
1 45689U 20035AJ  24023.09690669  .00018406  00000+0  12514-2 0  9991
2 45689  53.0551 302.8834 0001605 147.7010 212.4077 15.06397558201413
STARLINK-1414           
1 45690U 20035AK  24023.05638969  .00008486  00000+0  58786-3 0  9993
2 45690  53.0552 303.2832 0001362  97.0032 263.1112 15.06401315201342
STARLINK-1415           
1 45691U 20035AL  24023.08216258  .00005567  00000+0  39236-3 0  9996
2 45691  53.0538 302.9441 0001332 111.6698 248.4433 15.06396504201825
STARLINK-1416           
1 45692U 20035AM  24023.00844333  .00000549  00000+0  55748-4 0  9992
2 45692  53.0550 303.2819 0001299  90.9737 269.1401 15.06391800201401
STARLINK-1417           
1 45693U 20035AN  24023.09321950  .00018145  00000+0  12347-2 0  9994
2 45693  53.0541 302.8952 0001302  80.3085 279.8051 15.06375302201418
STARLINK-1420           
1 45695U 20035AQ  24023.02777099 -.00000283  00000+0 -11406-6 0  9993
2 45695  53.0548 283.1792 0001421  93.8200 266.2951 15.06392555201687
STARLINK-1422           
1 45696U 20035AR  24023.03793210  .00011540  00000+0  79226-3 0  9995
2 45696  53.0546 303.1454 0001287 124.7853 235.3258 15.06404245201409
STARLINK-1351           
1 45697U 20035AS  24023.01398112  .00007121  00000+0  49655-3 0  9999
2 45697  53.0544 283.2489 0001293  92.7299 267.3838 15.06395516201688
STARLINK-1370           
1 45698U 20035AT  24023.00196630  .00002315  00000+0  17425-3 0  9990
2 45698  53.0546 283.2979 0001376  95.9161 264.1985 15.06396308201699
STARLINK-1398           
1 45699U 20035AU  24022.99186016  .00001222  00000+0  10095-3 0  9997
2 45699  53.0540 283.3497 0001425  97.4897 262.6254 15.06395225201721
STARLINK-1400           
1 45700U 20035AV  24022.98817955  .00004685  00000+0  33324-3 0  9998
2 45700  53.0536 283.3667 0001374  87.2894 272.8252 15.06396884201672
STARLINK-1403           
1 45701U 20035AW  24022.95131842  .00009165  00000+0  63329-3 0  9996
2 45701  53.0549 283.5337 0001337  96.9355 263.1786 15.06403261201674
STARLINK-1405           
1 45702U 20035AX  24022.93288791  .00008271  00000+0  57343-3 0  9997
2 45702  53.0539 283.6162 0001486 114.7278 245.3865 15.06404166202068
STARLINK-1407           
1 45703U 20035AY  24023.06187389 -.00007832  00000+0 -50749-3 0  9991
2 45703  53.0535 283.0389 0001285 101.7968 258.3165 15.06400377201683
STARLINK-1409           
1 45704U 20035AZ  24023.02132004  .00019220  00000+0  13057-2 0  9994
2 45704  53.0552 313.2226 0001210 130.3408 229.7686 15.06398973201266
STARLINK-1411           
1 45706U 20035BB  24023.03978063  .00005551  00000+0  39126-3 0  9998
2 45706  53.0542 283.1328 0001456  82.1028 278.0126 15.06398417201684
STARLINK-1412           
1 45707U 20035BC  24023.03607774  .00002153  00000+0  16347-3 0  9992
2 45707  53.0536 283.1535 0000738 117.5322 242.5742 15.06383156201684
STARLINK-1418           
1 45708U 20035BD  24022.94394067  .00008073  00000+0  56023-3 0  9992
2 45708  53.0562 283.5672 0001660 114.9585 245.1577 15.06402702201670
STARLINK-1421           
1 45709U 20035BE  24022.98081010  .00021236  00000+0  14410-2 0  9997
2 45709  53.0537 283.3983 0001504  69.8238 290.2913 15.06381299201678
STARLINK-1423           
1 45710U 20035BF  24022.97712307  .00001201  00000+0  99526-4 0  9991
2 45710  53.0545 283.4158 0001732  68.4247 291.6926 15.06391721201672
STARLINK-1433           
1 45711U 20035BG  24023.02504064  .00000572  00000+0  57285-4 0  9994
2 45711  53.0543 283.1943 0001283  91.3561 268.7575 15.06388712201687
STARLINK-1434           
1 45712U 20035BH  24022.95499629  .00007292  00000+0  50788-3 0  9992
2 45712  53.0534 283.5144 0001376 106.8330 253.2810 15.06402543201673
STARLINK-1436 (VISORSAT)
1 45713U 20035BJ  24023.03757963  .00022908  00000+0  15204-2 0  9995
2 45713  53.0549 303.1042 0001900 103.4859 256.6342 15.07158847201402
STARLINK-1437           
1 45714U 20035BK  24023.03241179  .00002231  00000+0  16864-3 0  9994
2 45714  53.0541 283.1660 0001445  76.8161 283.2989 15.06391544201686
STARLINK-1461           
1 45730U 20038A   24023.50788021  .00004845  00000+0  34392-3 0  9998
2 45730  53.0533 121.0367 0001436  69.2906 290.8237 15.06400742200323
STARLINK-1465           
1 45731U 20038B   24023.45626648  .00003095  00000+0  22659-3 0  9998
2 45731  53.0535 121.2709 0001231 102.1410 257.9717 15.06399732200163
STARLINK-1466           
1 45732U 20038C   24023.44521095  .00009329  00000+0  64433-3 0  9990
2 45732  53.0532 121.3170 0001279  99.8737 260.2396 15.06400099200316
STARLINK-1467           
1 45733U 20038D   24023.46684399  .00015166  00000+0  57361-3 0  9998
2 45733  53.0718  79.0365 0007087  24.6035 335.5300 15.27153074200916
STARLINK-1468           
1 45734U 20038E   24023.44446793  .00031081  00000+0  12896-2 0  9998
2 45734  53.0788  90.1081 0005055 174.2771 185.8285 15.23608757200754
STARLINK-1471           
1 45735U 20038F   24023.47102643  .00016368  00000+0  11152-2 0  9990
2 45735  53.0554 121.2010 0005561  24.4099 335.7153 15.06391233200316
STARLINK-1474           
1 45738U 20038J   24023.45996822  .00009346  00000+0  64557-3 0  9997
2 45738  53.0521 121.2495 0001500  75.0940 285.0215 15.06395723200310
STARLINK-1475           
1 45739U 20038K   24023.47376709  .00000273  00000+0  37257-4 0  9994
2 45739  53.0541  81.1835 0001738  68.8483 291.2692 15.06389691200720
STARLINK-1479           
1 45740U 20038L   24023.46733379  .00002000  00000+0  15319-3 0  9999
2 45740  53.0543 121.2126 0001592  66.4778 293.6378 15.06389037200318
STARLINK-1480           
1 45741U 20038M   24023.50418882  .00008849  00000+0  61221-3 0  9994
2 45741  53.0543 121.0494 0001386  80.2184 279.8962 15.06399004200322
STARLINK-1481           
1 45742U 20038N   24023.49681676  .00000996  00000+0  85792-4 0  9991
2 45742  53.0535 121.0820 0001330  94.6410 265.4731 15.06390294200313
STARLINK-1483           
1 45743U 20038P   24023.25001157  .00036964  00000+0  14650-2 0  9993
2 45743  53.0510 121.3098 0003197 112.8898 312.1791 15.25070122200146
STARLINK-1500           
1 45744U 20038Q   24023.48575559  .00010811  00000+0  74337-3 0  9993
2 45744  53.0534 121.1306 0001184  86.3163 273.7961 15.06409174200128
STARLINK-1503           
1 45745U 20038R   24023.47471913  .00007021  00000+0  48980-3 0  9996
2 45745  53.0523 121.1836 0001586  82.8643 277.2526 15.06397870200120
STARLINK-1504           
1 45746U 20038S   24023.48943760  .00017978  00000+0  12228-2 0  9999
2 45746  53.0541 121.1133 0001230 120.8044 239.3066 15.06397603200127
STARLINK-1506           
1 45747U 20038T   24023.49313406  .00000989  00000+0  85283-4 0  9996
2 45747  53.0531 121.0997 0001556  48.4021 311.7101 15.06392701200124
